{
  "norad_id": 63413,
  "name": "STARLINK-33670",
  "history": [
    {
      "epoch": "2026-03-28T11:18:23.775264Z",
      "apogee_km": 483.4086691619241,
      "perigee_km": 482.62951627603525,
      "latitude_deg": 3.1133777913234735e-06,
      "longitude_deg": 5.369258224835714,
      "height_km": 482.6139742559607,
      "semi_major_axis_km": 6861.156092718979,
      "eccentricity": 5.678e-05,
      "inclination_deg": 43.0002,
      "raan_deg": 0.8594,
      "arg_perigee_deg": 297.6962,
      "mean_anomaly_deg": 62.3832,
      "mean_motion_rev_day": 15.2759002
    },
    {
      "epoch": "2026-03-29T02:59:56.887008Z",
      "apogee_km": 483.51069388526594,
      "perigee_km": 482.34568501609647,
      "latitude_deg": 1.6264418299503612e-05,
      "longitude_deg": 125.64333715657372,
      "height_km": 482.75772923321495,
      "semi_major_axis_km": 6861.065189450681,
      "eccentricity": 8.49e-05,
      "inclination_deg": 43.0015,
      "raan_deg": 357.1659,
      "arg_perigee_deg": 264.7634,
      "mean_anomaly_deg": 95.3121,
      "mean_motion_rev_day": 15.27620379
    },
    {
      "epoch": "2026-03-30T02:32:17.180160Z",
      "apogee_km": 484.28453652395365,
      "perigee_km": 481.64987250941886,
      "latitude_deg": -4.6019282255167976e-05,
      "longitude_deg": 126.05190535076838,
      "height_km": 482.4642561660661,
      "semi_major_axis_km": 6861.104204516686,
      "eccentricity": 0.000192,
      "inclination_deg": 43.0052,
      "raan_deg": 351.6258,
      "arg_perigee_deg": 282.3008,
      "mean_anomaly_deg": 77.7628,
      "mean_motion_rev_day": 15.27607349
    },
    {
      "epoch": "2026-03-30T02:32:17.181024Z",
      "apogee_km": 484.2846737460377,
      "perigee_km": 481.6497352873348,
      "latitude_deg": -4.44823792440503e-05,
      "longitude_deg": 126.05190337963474,
      "height_km": 482.46422693575556,
      "semi_major_axis_km": 6861.104204516686,
      "eccentricity": 0.00019202,
      "inclination_deg": 43.0052,
      "raan_deg": 351.6258,
      "arg_perigee_deg": 282.3008,
      "mean_anomaly_deg": 77.7628,
      "mean_motion_rev_day": 15.27607349
    },
    {
      "epoch": "2026-03-30T10:23:04.631136Z",
      "apogee_km": 483.7205758755181,
      "perigee_km": 482.40830248826023,
      "latitude_deg": 8.501335127968296e-06,
      "longitude_deg": 6.186906576253993,
      "height_km": 482.7589312037994,
      "semi_major_axis_km": 6861.201439181889,
      "eccentricity": 9.563e-05,
      "inclination_deg": 43.0015,
      "raan_deg": 349.7807,
      "arg_perigee_deg": 277.1793,
      "mean_anomaly_deg": 82.895,
      "mean_motion_rev_day": 15.27574876
    },
    {
      "epoch": "2026-03-31T09:55:26.449248Z",
      "apogee_km": 483.87112723412247,
      "perigee_km": 482.26478193015646,
      "latitude_deg": -3.750291130062897e-05,
      "longitude_deg": 6.589321404112941,
      "height_km": 482.58840516379803,
      "semi_major_axis_km": 6861.204954582139,
      "eccentricity": 0.00011706,
      "inclination_deg": 43.0066,
      "raan_deg": 344.2408,
      "arg_perigee_deg": 288.6453,
      "mean_anomaly_deg": 71.4271,
      "mean_motion_rev_day": 15.27573702
    },
    {
      "epoch": "2026-04-01T09:27:47.280672Z",
      "apogee_km": 483.7788235277012,
      "perigee_km": 482.2954376806638,
      "latitude_deg": -2.4877857632574576e-05,
      "longitude_deg": 6.997221269268203,
      "height_km": 482.7396569886077,
      "semi_major_axis_km": 6861.174130604182,
      "eccentricity": 0.0001081,
      "inclination_deg": 43.0021,
      "raan_deg": 338.7022,
      "arg_perigee_deg": 275.7374,
      "mean_anomaly_deg": 84.3354,
      "mean_motion_rev_day": 15.27583996
    },
    {
      "epoch": "2026-04-02T16:50:54.882240Z",
      "apogee_km": 483.88650900289576,
      "perigee_km": 482.0710577666123,
      "latitude_deg": 5.18579925699435e-06,
      "longitude_deg": -112.45837305520999,
      "height_km": 482.3217301318705,
      "semi_major_axis_km": 6861.115783384754,
      "eccentricity": 0.0001323,
      "inclination_deg": 43.0025,
      "raan_deg": 331.3172,
      "arg_perigee_deg": 61.6157,
      "mean_anomaly_deg": 298.4828,
      "mean_motion_rev_day": 15.27603482
    },
    {
      "epoch": "2026-04-02T23:07:32.326176Z",
      "apogee_km": 484.45283321696934,
      "perigee_km": 481.66403172148785,
      "latitude_deg": 6.0230485233696855e-05,
      "longitude_deg": 151.6507794147289,
      "height_km": 482.91533562698487,
      "semi_major_axis_km": 6861.195432469228,
      "eccentricity": 0.00020323,
      "inclination_deg": 43.0011,
      "raan_deg": 329.8401,
      "arg_perigee_deg": 266.7274,
      "mean_anomaly_deg": 93.3346,
      "mean_motion_rev_day": 15.27576882
    }
  ]
}